[{"OBJECT_NAME":"STARLINK-34559","OBJECT_ID":"2025-142L","EPOCH":"2026-03-09T23:08:56.101344","MEAN_MOTION":14.98334778,"ECCENTRICITY":0.00026186,"INCLINATION":70.0015,"RA_OF_ASC_NODE":313.6977,"ARG_OF_PERICENTER":262.6555,"MEAN_ANOMALY":97.4306,"EPHEMERIS_TYPE":0,"CLASSIFICATION_TYPE":"U","NORAD_CAT_ID":64706,"ELEMENT_SET_NO":999,"REV_AT_EPOCH":3953,"BSTAR":0.00037743117,"MEAN_MOTION_DOT":4.414e-5,"MEAN_MOTION_DDOT":0},{"OBJECT_NAME":"ION SCV-021","OBJECT_ID":"2025-276DT","EPOCH":"2026-03-09T17:54:19.585728","MEAN_MOTION":14.97286526,"ECCENTRICITY":0.00131375,"INCLINATION":97.5322,"RA_OF_ASC_NODE":142.8125,"ARG_OF_PERICENTER":96.8695,"MEAN_ANOMALY":263.4023,"EPHEMERIS_TYPE":0,"CLASSIFICATION_TYPE":"U","NORAD_CAT_ID":67483,"ELEMENT_SET_NO":999,"REV_AT_EPOCH":772,"BSTAR":0.00021144867,"MEAN_MOTION_DOT":2.399e-5,"MEAN_MOTION_DDOT":0}]
